[{"OBJECT_NAME":"STARLINK-1816","OBJECT_ID":"2020-073AW","EPOCH":"2026-03-10T00:00:02.999808","MEAN_MOTION":15.7373021,"ECCENTRICITY":0.00013796,"INCLINATION":53.0412,"RA_OF_ASC_NODE":197.1696,"ARG_OF_PERICENTER":136.5835,"MEAN_ANOMALY":114.6456,"EPHEMERIS_TYPE":0,"CLASSIFICATION_TYPE":"U","NORAD_CAT_ID":46714,"ELEMENT_SET_NO":999,"REV_AT_EPOCH":597,"BSTAR":0.00068317035,"MEAN_MOTION_DOT":0.00098636,"MEAN_MOTION_DDOT":0},{"OBJECT_NAME":"STARLINK-36346","OBJECT_ID":"2026-032X","EPOCH":"2026-03-09T22:00:01.999584","MEAN_MOTION":15.75124992,"ECCENTRICITY":0.00016041,"INCLINATION":97.2848,"RA_OF_ASC_NODE":255.5297,"ARG_OF_PERICENTER":97.3935,"MEAN_ANOMALY":15.3279,"EPHEMERIS_TYPE":0,"CLASSIFICATION_TYPE":"U","NORAD_CAT_ID":67818,"ELEMENT_SET_NO":999,"REV_AT_EPOCH":481,"BSTAR":0.0012511245,"MEAN_MOTION_DOT":0.00190164,"MEAN_MOTION_DDOT":0}]
